{
  "type": "FeatureCollection",
  "features": [
    {
      "type": "Feature",
      "properties": {
        "norad_id": 33737,
        "name": "FENGYUN 1C DEB",
        "group": "fengyun-1c-debris",
        "lat": -9.7076695650677,
        "lon": -9.812065247857495,
        "alt_km": 935.6074601758291,
        "timestamp": "2025-12-02T21:34:01.558179+00:00",
        "meta_object_name": "FENGYUN 1C DEB",
        "meta_object_id": "1999-025DJA",
        "meta_epoch": "2025-12-02T12:21:10.111104",
        "meta_mean_motion": 14.02935488,
        "meta_eccentricity": 0.0128495,
        "meta_inclination": 98.3389,
        "meta_ra_of_asc_node": 171.2738,
        "meta_arg_of_pericenter": 312.2838,
        "meta_mean_anomaly": 100.7012,
        "meta_ephemeris_type": 0,
        "meta_classification_type": "U",
        "meta_norad_cat_id": 33737,
        "meta_element_set_no": 999,
        "meta_rev_at_epoch": 88597,
        "meta_bstar": 0.0014546,
        "meta_mean_motion_dot": 2.387e-05,
        "meta_mean_motion_ddot": 0,
        "tle_line1": "1 33737U 99025DJA 25336.51470036  .00002387  00000+0  14546-2 0  9994",
        "tle_line2": "2 33737  98.3389 171.2738 0128495 312.2838 100.7012 14.02935488885972"
      },
      "geometry": {
        "type": "Point",
        "coordinates": [
          -9.812065247857495,
          -9.7076695650677
        ]
      }
    },
    {
      "type": "Feature",
      "properties": {
        "norad_id": 33738,
        "name": "FENGYUN 1C DEB",
        "group": "fengyun-1c-debris",
        "lat": -51.13125491490936,
        "lon": -154.60740827972825,
        "alt_km": 1036.9424133642706,
        "timestamp": "2025-12-02T21:34:01.558190+00:00",
        "meta_object_name": "FENGYUN 1C DEB",
        "meta_object_id": "1999-025DJB",
        "meta_epoch": "2025-12-02T03:34:07.425984",
        "meta_mean_motion": 13.99504773,
        "meta_eccentricity": 0.01853263,
        "meta_inclination": 99.1539,
        "meta_ra_of_asc_node": 36.1825,
        "meta_arg_of_pericenter": 50.5718,
        "meta_mean_anomaly": 5.2798,
        "meta_ephemeris_type": 0,
        "meta_classification_type": "U",
        "meta_norad_cat_id": 33738,
        "meta_element_set_no": 999,
        "meta_rev_at_epoch": 89088,
        "meta_bstar": 0.00054954534,
        "meta_mean_motion_dot": 8.85e-06,
        "meta_mean_motion_ddot": 0,
        "tle_line1": "1 33738U 99025DJB 25336.14869706  .00000885  00000+0  54955-3 0  9990",
        "tle_line2": "2 33738  99.1539  36.1825 0185326  50.5718   5.2798 13.99504773890880"
      },
      "geometry": {
        "type": "Point",
        "coordinates": [
          -154.60740827972825,
          -51.13125491490936
        ]
      }
    },
    {
      "type": "Feature",
      "properties": {
        "norad_id": 33740,
        "name": "FENGYUN 1C DEB",
        "group": "fengyun-1c-debris",
        "lat": 2.0188627453372168,
        "lon": 170.4212358625007,
        "alt_km": 853.0717352967476,
        "timestamp": "2025-12-02T21:34:01.558200+00:00",
        "meta_object_name": "FENGYUN 1C DEB",
        "meta_object_id": "1999-025DJD",
        "meta_epoch": "2025-12-02T07:07:31.709856",
        "meta_mean_motion": 14.12313529,
        "meta_eccentricity": 0.0001679,
        "meta_inclination": 98.6878,
        "meta_ra_of_asc_node": 349.5292,
        "meta_arg_of_pericenter": 147.5645,
        "meta_mean_anomaly": 212.5631,
        "meta_ephemeris_type": 0,
        "meta_classification_type": "U",
        "meta_norad_cat_id": 33740,
        "meta_element_set_no": 999,
        "meta_rev_at_epoch": 89999,
        "meta_bstar": 0.00018109,
        "meta_mean_motion_dot": 2.91e-06,
        "meta_mean_motion_ddot": 0,
        "tle_line1": "1 33740U 99025DJD 25336.29689479  .00000291  00000+0  18109-3 0  9998",
        "tle_line2": "2 33740  98.6878 349.5292 0001679 147.5645 212.5631 14.12313529899999"
      },
      "geometry": {
        "type": "Point",
        "coordinates": [
          170.4212358625007,
          2.0188627453372168
        ]
      }
    },
    {
      "type": "Feature",
      "properties": {
        "norad_id": 33741,
        "name": "FENGYUN 1C DEB",
        "group": "fengyun-1c-debris",
        "lat": -52.13656597057582,
        "lon": -97.85729997886511,
        "alt_km": 957.2102698218869,
        "timestamp": "2025-12-02T21:34:01.558210+00:00",
        "meta_object_name": "FENGYUN 1C DEB",
        "meta_object_id": "1999-025DJE",
        "meta_epoch": "2025-12-01T11:45:13.004640",
        "meta_mean_motion": 14.09688751,
        "meta_eccentricity": 0.0126432,
        "meta_inclination": 98.5634,
        "meta_ra_of_asc_node": 249.6268,
        "meta_arg_of_pericenter": 120.4011,
        "meta_mean_anomaly": 240.9727,
        "meta_ephemeris_type": 0,
        "meta_classification_type": "U",
        "meta_norad_cat_id": 33741,
        "meta_element_set_no": 999,
        "meta_rev_at_epoch": 56704,
        "meta_bstar": 0.0023289671,
        "meta_mean_motion_dot": 4.361e-05,
        "meta_mean_motion_ddot": 0,
        "tle_line1": "1 33741U 99025DJE 25335.48973385  .00004361  00000+0  23290-2 0  9999",
        "tle_line2": "2 33741  98.5634 249.6268 0126432 120.4011 240.9727 14.09688751567041"
      },
      "geometry": {
        "type": "Point",
        "coordinates": [
          -97.85729997886511,
          -52.13656597057582
        ]
      }
    },
    {
      "type": "Feature",
      "properties": {
        "norad_id": 33745,
        "name": "FENGYUN 1C DEB",
        "group": "fengyun-1c-debris",
        "lat": -43.32748935322854,
        "lon": -174.97939209351384,
        "alt_km": 811.9080802383069,
        "timestamp": "2025-12-02T21:34:01.558221+00:00",
        "meta_object_name": "FENGYUN 1C DEB",
        "meta_object_id": "1999-025DJJ",
        "meta_epoch": "2025-11-25T01:05:32.743968",
        "meta_mean_motion": 14.22170506,
        "meta_eccentricity": 0.00530671,
        "meta_inclination": 99.1146,
        "meta_ra_of_asc_node": 5.6166,
        "meta_arg_of_pericenter": 317.4724,
        "meta_mean_anomaly": 42.2348,
        "meta_ephemeris_type": 0,
        "meta_classification_type": "U",
        "meta_norad_cat_id": 33745,
        "meta_element_set_no": 999,
        "meta_rev_at_epoch": 65750,
        "meta_bstar": 0.0015193996,
        "meta_mean_motion_dot": 3.37e-05,
        "meta_mean_motion_ddot": 0,
        "tle_line1": "1 33745U 99025DJJ 25329.04551787  .00003370  00000+0  15194-2 0  9999",
        "tle_line2": "2 33745  99.1146   5.6166 0053067 317.4724  42.2348 14.22170506657501"
      },
      "geometry": {
        "type": "Point",
        "coordinates": [
          -174.97939209351384,
          -43.32748935322854
        ]
      }
    },
    {
      "type": "Feature",
      "properties": {
        "norad_id": 33747,
        "name": "FENGYUN 1C DEB",
        "group": "fengyun-1c-debris",
        "lat": -44.60739781627035,
        "lon": 80.44065741680343,
        "alt_km": 819.7418019390352,
        "timestamp": "2025-12-02T21:34:01.558231+00:00",
        "meta_object_name": "FENGYUN 1C DEB",
        "meta_object_id": "1999-025DJL",
        "meta_epoch": "2025-11-29T12:27:00.158112",
        "meta_mean_motion": 14.17213591,
        "meta_eccentricity": 0.00886133,
        "meta_inclination": 99.0966,
        "meta_ra_of_asc_node": 67.8906,
        "meta_arg_of_pericenter": 253.5899,
        "meta_mean_anomaly": 105.552,
        "meta_ephemeris_type": 0,
        "meta_classification_type": "U",
        "meta_norad_cat_id": 33747,
        "meta_element_set_no": 999,
        "meta_rev_at_epoch": 89945,
        "meta_bstar": 0.0024193781,
        "meta_mean_motion_dot": 5.029e-05,
        "meta_mean_motion_ddot": 0,
        "tle_line1": "1 33747U 99025DJL 25333.51875183  .00005029  00000+0  24194-2 0  9990",
        "tle_line2": "2 33747  99.0966  67.8906 0088613 253.5899 105.5520 14.17213591899455"
      },
      "geometry": {
        "type": "Point",
        "coordinates": [
          80.44065741680343,
          -44.60739781627035
        ]
      }
    },
    {
      "type": "Feature",
      "properties": {
        "norad_id": 33748,
        "name": "FENGYUN 1C DEB",
        "group": "fengyun-1c-debris",
        "lat": 13.803380320973522,
        "lon": -149.72107012001848,
        "alt_km": 791.612487160287,
        "timestamp": "2025-12-02T21:34:01.558241+00:00",
        "meta_object_name": "FENGYUN 1C DEB",
        "meta_object_id": "1999-025DJM",
        "meta_epoch": "2025-12-02T09:03:14.628096",
        "meta_mean_motion": 14.3216582,
        "meta_eccentricity": 0.0034244,
        "meta_inclination": 98.5882,
        "meta_ra_of_asc_node": 27.635,
        "meta_arg_of_pericenter": 272.1752,
        "meta_mean_anomaly": 87.551,
        "meta_ephemeris_type": 0,
        "meta_classification_type": "U",
        "meta_norad_cat_id": 33748,
        "meta_element_set_no": 999,
        "meta_rev_at_epoch": 91245,
        "meta_bstar": 0.0016615,
        "meta_mean_motion_dot": 4.46e-05,
        "meta_mean_motion_ddot": 0,
        "tle_line1": "1 33748U 99025DJM 25336.37725264  .00004460  00000+0  16615-2 0  9999",
        "tle_line2": "2 33748  98.5882  27.6350 0034244 272.1752  87.5510 14.32165820912452"
      },
      "geometry": {
        "type": "Point",
        "coordinates": [
          -149.72107012001848,
          13.803380320973522
        ]
      }
    }
  ]
}